[{"OBJECT_NAME":"ONEWEB-0321","OBJECT_ID":"2021-083F","EPOCH":"2025-10-29T12:30:58.673952","MEAN_MOTION":13.20771537,"ECCENTRICITY":0.0002145,"INCLINATION":87.9199,"RA_OF_ASC_NODE":320.4361,"ARG_OF_PERICENTER":99.4464,"MEAN_ANOMALY":260.6911,"EPHEMERIS_TYPE":0,"CLASSIFICATION_TYPE":"U","NORAD_CAT_ID":49191,"ELEMENT_SET_NO":999,"REV_AT_EPOCH":20638,"BSTAR":0.00012894,"MEAN_MOTION_DOT":6.5e-7,"MEAN_MOTION_DDOT":0},{"OBJECT_NAME":"ONEWEB-0322","OBJECT_ID":"2021-083G","EPOCH":"2025-10-29T09:55:22.352160","MEAN_MOTION":13.13472944,"ECCENTRICITY":0.0002158,"INCLINATION":87.9026,"RA_OF_ASC_NODE":6.1228,"ARG_OF_PERICENTER":111.2951,"MEAN_ANOMALY":248.8408,"EPHEMERIS_TYPE":0,"CLASSIFICATION_TYPE":"U","NORAD_CAT_ID":49192,"ELEMENT_SET_NO":999,"REV_AT_EPOCH":20062,"BSTAR":0.00073878,"MEAN_MOTION_DOT":2.83e-6,"MEAN_MOTION_DDOT":0},{"OBJECT_NAME":"ONEWEB-0324","OBJECT_ID":"2021-083H","EPOCH":"2025-10-29T11:18:33.463296","MEAN_MOTION":13.18686114,"ECCENTRICITY":0.0001928,"INCLINATION":87.9231,"RA_OF_ASC_NODE":21.2692,"ARG_OF_PERICENTER":96.402,"MEAN_ANOMALY":263.7332,"EPHEMERIS_TYPE":0,"CLASSIFICATION_TYPE":"U","NORAD_CAT_ID":49193,"ELEMENT_SET_NO":999,"REV_AT_EPOCH":19959,"BSTAR":0.00033003,"MEAN_MOTION_DOT":1.43e-6,"MEAN_MOTION_DDOT":0},{"OBJECT_NAME":"ONEWEB-0325","OBJECT_ID":"2021-083J","EPOCH":"2025-10-29T11:23:17.854944","MEAN_MOTION":13.1868948,"ECCENTRICITY":0.0001875,"INCLINATION":87.9221,"RA_OF_ASC_NODE":21.2863,"ARG_OF_PERICENTER":102.1995,"MEAN_ANOMALY":257.9347,"EPHEMERIS_TYPE":0,"CLASSIFICATION_TYPE":"U","NORAD_CAT_ID":49194,"ELEMENT_SET_NO":999,"REV_AT_EPOCH":19960,"BSTAR":-0.00078343,"MEAN_MOTION_DOT":-2.96e-6,"MEAN_MOTION_DDOT":0},{"OBJECT_NAME":"ONEWEB-0326","OBJECT_ID":"2021-083K","EPOCH":"2025-10-29T11:44:52.368000","MEAN_MOTION":13.18685667,"ECCENTRICITY":0.0001505,"INCLINATION":87.9227,"RA_OF_ASC_NODE":21.2712,"ARG_OF_PERICENTER":97.7926,"MEAN_ANOMALY":262.3377,"EPHEMERIS_TYPE":0,"CLASSIFICATION_TYPE":"U","NORAD_CAT_ID":49195,"ELEMENT_SET_NO":999,"REV_AT_EPOCH":19959,"BSTAR":8.0692e-5,"MEAN_MOTION_DOT":4.5e-7,"MEAN_MOTION_DDOT":0},{"OBJECT_NAME":"ONEWEB-0327","OBJECT_ID":"2021-083L","EPOCH":"2025-10-29T11:44:29.438304","MEAN_MOTION":13.18686379,"ECCENTRICITY":0.0001443,"INCLINATION":87.9219,"RA_OF_ASC_NODE":21.2942,"ARG_OF_PERICENTER":102.0471,"MEAN_ANOMALY":258.0822,"EPHEMERIS_TYPE":0,"CLASSIFICATION_TYPE":"U","NORAD_CAT_ID":49196,"ELEMENT_SET_NO":999,"REV_AT_EPOCH":19961,"BSTAR":-9.7392e-5,"MEAN_MOTION_DOT":-2.5e-7,"MEAN_MOTION_DDOT":0},{"OBJECT_NAME":"ONEWEB-0328","OBJECT_ID":"2021-083M","EPOCH":"2025-10-28T09:54:43.092000","MEAN_MOTION":13.13468467,"ECCENTRICITY":0.00019005,"INCLINATION":87.9043,"RA_OF_ASC_NODE":6.2633,"ARG_OF_PERICENTER":95.9533,"MEAN_ANOMALY":264.1813,"EPHEMERIS_TYPE":0,"CLASSIFICATION_TYPE":"U","NORAD_CAT_ID":49197,"ELEMENT_SET_NO":999,"REV_AT_EPOCH":20047,"BSTAR":0.00069531088,"MEAN_MOTION_DOT":2.67e-6,"MEAN_MOTION_DDOT":0},{"OBJECT_NAME":"ONEWEB-0331","OBJECT_ID":"2021-083N","EPOCH":"2025-10-29T11:35:11.194080","MEAN_MOTION":13.18686391,"ECCENTRICITY":0.0001607,"INCLINATION":87.9227,"RA_OF_ASC_NODE":21.265,"ARG_OF_PERICENTER":90.7762,"MEAN_ANOMALY":269.3554,"EPHEMERIS_TYPE":0,"CLASSIFICATION_TYPE":"U","NORAD_CAT_ID":49198,"ELEMENT_SET_NO":999,"REV_AT_EPOCH":19960,"BSTAR":0.00029335,"MEAN_MOTION_DOT":1.29e-6,"MEAN_MOTION_DDOT":0},{"OBJECT_NAME":"ONEWEB-0333","OBJECT_ID":"2021-083P","EPOCH":"2025-10-29T11:23:08.555712","MEAN_MOTION":13.13471988,"ECCENTRICITY":0.0001832,"INCLINATION":87.902,"RA_OF_ASC_NODE":6.113,"ARG_OF_PERICENTER":103.1434,"MEAN_ANOMALY":256.99,"EPHEMERIS_TYPE":0,"CLASSIFICATION_TYPE":"U","NORAD_CAT_ID":49199,"ELEMENT_SET_NO":999,"REV_AT_EPOCH":20062,"BSTAR":0.00098637,"MEAN_MOTION_DOT":3.73e-6,"MEAN_MOTION_DDOT":0},{"OBJECT_NAME":"ONEWEB-0334","OBJECT_ID":"2021-083Q","EPOCH":"2025-10-29T11:06:53.770176","MEAN_MOTION":13.20770907,"ECCENTRICITY":0.0002491,"INCLINATION":87.919,"RA_OF_ASC_NODE":320.4793,"ARG_OF_PERICENTER":116.2751,"MEAN_ANOMALY":243.8638,"EPHEMERIS_TYPE":0,"CLASSIFICATION_TYPE":"U","NORAD_CAT_ID":49200,"ELEMENT_SET_NO":999,"REV_AT_EPOCH":20633,"BSTAR":1.0101e-5,"MEAN_MOTION_DOT":1.7e-7,"MEAN_MOTION_DDOT":0},{"OBJECT_NAME":"ONEWEB-0335","OBJECT_ID":"2021-083R","EPOCH":"2025-10-29T11:15:49.374144","MEAN_MOTION":13.13472297,"ECCENTRICITY":0.0001667,"INCLINATION":87.902,"RA_OF_ASC_NODE":6.1018,"ARG_OF_PERICENTER":95.5624,"MEAN_ANOMALY":264.5695,"EPHEMERIS_TYPE":0,"CLASSIFICATION_TYPE":"U","NORAD_CAT_ID":49201,"ELEMENT_SET_NO":999,"REV_AT_EPOCH":20063,"BSTAR":0.00087783,"MEAN_MOTION_DOT":3.33e-6,"MEAN_MOTION_DDOT":0},{"OBJECT_NAME":"ONEWEB-0336","OBJECT_ID":"2021-083S","EPOCH":"2025-10-29T10:34:23.125152","MEAN_MOTION":13.13471255,"ECCENTRICITY":0.0001657,"INCLINATION":87.902,"RA_OF_ASC_NODE":6.1023,"ARG_OF_PERICENTER":87.3703,"MEAN_ANOMALY":272.7615,"EPHEMERIS_TYPE":0,"CLASSIFICATION_TYPE":"U","NORAD_CAT_ID":49202,"ELEMENT_SET_NO":999,"REV_AT_EPOCH":20062,"BSTAR":-0.00084179,"MEAN_MOTION_DOT":-2.95e-6,"MEAN_MOTION_DDOT":0},{"OBJECT_NAME":"ONEWEB-0337","OBJECT_ID":"2021-083T","EPOCH":"2025-10-29T10:48:48.619872","MEAN_MOTION":13.13472513,"ECCENTRICITY":0.0001896,"INCLINATION":87.9032,"RA_OF_ASC_NODE":6.1094,"ARG_OF_PERICENTER":93.0416,"MEAN_ANOMALY":267.0931,"EPHEMERIS_TYPE":0,"CLASSIFICATION_TYPE":"U","NORAD_CAT_ID":49203,"ELEMENT_SET_NO":999,"REV_AT_EPOCH":20062,"BSTAR":-0.00022915,"MEAN_MOTION_DOT":-7.1e-7,"MEAN_MOTION_DDOT":0},{"OBJECT_NAME":"ONEWEB-0338","OBJECT_ID":"2021-083U","EPOCH":"2025-10-29T12:19:36.361056","MEAN_MOTION":13.20773618,"ECCENTRICITY":0.0002044,"INCLINATION":87.9195,"RA_OF_ASC_NODE":320.4703,"ARG_OF_PERICENTER":101.0956,"MEAN_ANOMALY":259.0407,"EPHEMERIS_TYPE":0,"CLASSIFICATION_TYPE":"U","NORAD_CAT_ID":49204,"ELEMENT_SET_NO":999,"REV_AT_EPOCH":20636,"BSTAR":-0.00015008,"MEAN_MOTION_DOT":-4.8e-7,"MEAN_MOTION_DDOT":0},{"OBJECT_NAME":"ONEWEB-0339","OBJECT_ID":"2021-083V","EPOCH":"2025-10-29T11:01:12.540288","MEAN_MOTION":13.13469841,"ECCENTRICITY":0.0002003,"INCLINATION":87.9031,"RA_OF_ASC_NODE":6.0901,"ARG_OF_PERICENTER":99.8537,"MEAN_ANOMALY":260.2818,"EPHEMERIS_TYPE":0,"CLASSIFICATION_TYPE":"U","NORAD_CAT_ID":49205,"ELEMENT_SET_NO":999,"REV_AT_EPOCH":20060,"BSTAR":0.00030778,"MEAN_MOTION_DOT":1.25e-6,"MEAN_MOTION_DDOT":0},{"OBJECT_NAME":"ONEWEB-0340","OBJECT_ID":"2021-083W","EPOCH":"2025-10-29T11:16:11.057952","MEAN_MOTION":13.18686932,"ECCENTRICITY":0.0001745,"INCLINATION":87.9231,"RA_OF_ASC_NODE":21.2723,"ARG_OF_PERICENTER":99.2857,"MEAN_ANOMALY":260.8473,"EPHEMERIS_TYPE":0,"CLASSIFICATION_TYPE":"U","NORAD_CAT_ID":49206,"ELEMENT_SET_NO":999,"REV_AT_EPOCH":19956,"BSTAR":0.00023769,"MEAN_MOTION_DOT":1.07e-6,"MEAN_MOTION_DDOT":0},{"OBJECT_NAME":"ONEWEB-0341","OBJECT_ID":"2021-083X","EPOCH":"2025-10-29T11:25:40.912608","MEAN_MOTION":13.18687007,"ECCENTRICITY":0.0002164,"INCLINATION":87.9229,"RA_OF_ASC_NODE":21.2831,"ARG_OF_PERICENTER":88.7464,"MEAN_ANOMALY":271.3916,"EPHEMERIS_TYPE":0,"CLASSIFICATION_TYPE":"U","NORAD_CAT_ID":49207,"ELEMENT_SET_NO":999,"REV_AT_EPOCH":19958,"BSTAR":0.00020124,"MEAN_MOTION_DOT":9.2e-7,"MEAN_MOTION_DDOT":0}]
