ONEWEB-0321             
1 49191U 21083F   25302.52151243  .00000065  00000+0  12894-3 0  9990
2 49191  87.9199 320.4361 0002145  99.4464 260.6911 13.20771537206386
ONEWEB-0322             
1 49192U 21083G   25302.41345315  .00000283  00000+0  73878-3 0  9995
2 49192  87.9026   6.1228 0002158 111.2951 248.8408 13.13472944200626
ONEWEB-0324             
1 49193U 21083H   25302.47122064  .00000143  00000+0  33003-3 0  9997
2 49193  87.9231  21.2692 0001928  96.4020 263.7332 13.18686114199599
ONEWEB-0325             
1 49194U 21083J   25302.47451221 -.00000296  00000+0 -78343-3 0  9995
2 49194  87.9221  21.2863 0001875 102.1995 257.9347 13.18689480199608
ONEWEB-0326             
1 49195U 21083K   25302.48949500  .00000045  00000+0  80692-4 0  9990
2 49195  87.9227  21.2712 0001505  97.7926 262.3377 13.18685667199595
ONEWEB-0327             
1 49196U 21083L   25302.48922961 -.00000025  00000+0 -97392-4 0  9998
2 49196  87.9219  21.2942 0001443 102.0471 258.0822 13.18686379199619
ONEWEB-0328             
1 49197U 21083M   25301.41299875  .00000267  00000+0  69531-3 0  9991
2 49197  87.9043   6.2633 0001900  95.9533 264.1813 13.13468467200478
ONEWEB-0331             
1 49198U 21083N   25302.48276845  .00000129  00000+0  29335-3 0  9997
2 49198  87.9227  21.2650 0001607  90.7762 269.3554 13.18686391199604
ONEWEB-0333             
1 49199U 21083P   25302.47440458  .00000373  00000+0  98637-3 0  9992
2 49199  87.9020   6.1130 0001832 103.1434 256.9900 13.13471988200627
ONEWEB-0334             
1 49200U 21083Q   25302.46312234  .00000017  00000+0  10101-4 0  9990
2 49200  87.9190 320.4793 0002491 116.2751 243.8638 13.20770907206332
ONEWEB-0335             
1 49201U 21083R   25302.46932146  .00000333  00000+0  87783-3 0  9991
2 49201  87.9020   6.1018 0001667  95.5624 264.5695 13.13472297200638
ONEWEB-0336             
1 49202U 21083S   25302.44054543 -.00000295  00000+0 -84179-3 0  9991
2 49202  87.9020   6.1023 0001657  87.3703 272.7615 13.13471255200626
ONEWEB-0337             
1 49203U 21083T   25302.45056273 -.00000071  00000+0 -22915-3 0  9997
2 49203  87.9032   6.1094 0001896  93.0416 267.0931 13.13472513200624
ONEWEB-0338             
1 49204U 21083U   25302.51361529 -.00000048  00000+0 -15008-3 0  9997
2 49204  87.9195 320.4703 0002044 101.0956 259.0407 13.20773618206363
ONEWEB-0339             
1 49205U 21083V   25302.45917292  .00000125  00000+0  30778-3 0  9990
2 49205  87.9031   6.0901 0002003  99.8537 260.2818 13.13469841200607
ONEWEB-0340             
1 49206U 21083W   25302.46957243  .00000107  00000+0  23769-3 0  9994
2 49206  87.9231  21.2723 0001745  99.2857 260.8473 13.18686932199564
ONEWEB-0341             
1 49207U 21083X   25302.47616797  .00000092  00000+0  20124-3 0  9997
2 49207  87.9229  21.2831 0002164  88.7464 271.3916 13.18687007199580
